ONEWEB-0628             
1 55169U 23004AF  24345.61727766  .00000429  00000+0  11567-2 0  9991
2 55169  87.8885 100.8708 0002398 103.5131 256.6265 13.12443181 95422
ONEWEB-0629             
1 55170U 23004AG  24345.61477149  .00000086  00000+0  18937-3 0  9998
2 55170  87.9092 116.1465 0001880  90.0637 270.0709 13.17648832 94686
ONEWEB-0631             
1 55171U 23004AH  24345.35432489  .00000093  00000+0  20287-3 0  9997
2 55171  87.9120  85.6196 0001719 124.5958 235.5336 13.18687798 96689
ONEWEB-0709             
1 55172U 23004AJ  24345.44236027 -.00000482  00000+0 -13960-2 0  9991
2 55172  87.8891 131.4402 0000936 139.6186 220.5011 13.11414777 93290
ONEWEB-0710             
1 55173U 23004AK  24345.40129162  .00000139  00000+0  32596-3 0  9993
2 55173  87.9092 116.2127 0001660 102.2502 257.8815 13.17651593 94654
ONEWEB-0711             
1 55174U 23004AL  24345.41356590  .00000374  00000+0  10198-2 0  9996
2 55174  87.8892 131.4145 0002355 107.2408 252.8978 13.11415056 93259
ONEWEB-0713             
1 55175U 23004AM  24345.43220875 -.00000389  00000+0 -11326-2 0  9997
2 55175  87.8888 131.4185 0001787 101.0661 259.0668 13.11415384 93248
ONEWEB-0715             
1 55176U 23004AN  24345.42712174 -.00000172  00000+0 -51991-3 0  9998
2 55176  87.8888 131.4198 0001360 113.0644 247.0627 13.11415217 93285
